<?xml version="1.0" encoding="UTF-8"?>
<ndm xmlns:xsi="http://www.w3.org/2001/XMLSchema-instance" xsi:noNamespaceSchemaLocation="https://sanaregistry.org/r/ndmxml_unqualified/ndmxml-2.0.0-master-2.0.xsd">
<omm id="CCSDS_OMM_VERS" version="2.0">
<header><CREATION_DATE/><ORIGINATOR/></header><body><segment><metadata><OBJECT_NAME>ONEWEB-0276</OBJECT_NAME><OBJECT_ID>2021-060AD</OBJECT_ID><CENTER_NAME>EARTH</CENTER_NAME><REF_FRAME>TEME</REF_FRAME><TIME_SYSTEM>UTC</TIME_SYSTEM><MEAN_ELEMENT_THEORY>SGP4</MEAN_ELEMENT_THEORY></metadata><data><meanElements><EPOCH>2024-04-01T13:19:06.395232</EPOCH><MEAN_MOTION>13.16593279</MEAN_MOTION><ECCENTRICITY>.0002113</ECCENTRICITY><INCLINATION>87.9133</INCLINATION><RA_OF_ASC_NODE>29.3084</RA_OF_ASC_NODE><ARG_OF_PERICENTER>81.4488</ARG_OF_PERICENTER><MEAN_ANOMALY>278.6882</MEAN_ANOMALY></meanElements><tleParameters><EPHEMERIS_TYPE>0</EPHEMERIS_TYPE><CLASSIFICATION_TYPE>U</CLASSIFICATION_TYPE><NORAD_CAT_ID>48994</NORAD_CAT_ID><ELEMENT_SET_NO>999</ELEMENT_SET_NO><REV_AT_EPOCH>13343</REV_AT_EPOCH><BSTAR>.10753E-2</BSTAR><MEAN_MOTION_DOT>.424E-5</MEAN_MOTION_DOT><MEAN_MOTION_DDOT>0</MEAN_MOTION_DDOT></tleParameters></data></segment></body></omm>
<omm id="CCSDS_OMM_VERS" version="2.0">
<header><CREATION_DATE/><ORIGINATOR/></header><body><segment><metadata><OBJECT_NAME>ONEWEB-0277</OBJECT_NAME><OBJECT_ID>2021-060AE</OBJECT_ID><CENTER_NAME>EARTH</CENTER_NAME><REF_FRAME>TEME</REF_FRAME><TIME_SYSTEM>UTC</TIME_SYSTEM><MEAN_ELEMENT_THEORY>SGP4</MEAN_ELEMENT_THEORY></metadata><data><meanElements><EPOCH>2024-04-01T13:37:22.281600</EPOCH><MEAN_MOTION>13.16595482</MEAN_MOTION><ECCENTRICITY>.0001303</ECCENTRICITY><INCLINATION>87.9137</INCLINATION><RA_OF_ASC_NODE>29.3445</RA_OF_ASC_NODE><ARG_OF_PERICENTER>70.4999</ARG_OF_PERICENTER><MEAN_ANOMALY>289.6273</MEAN_ANOMALY></meanElements><tleParameters><EPHEMERIS_TYPE>0</EPHEMERIS_TYPE><CLASSIFICATION_TYPE>U</CLASSIFICATION_TYPE><NORAD_CAT_ID>48995</NORAD_CAT_ID><ELEMENT_SET_NO>999</ELEMENT_SET_NO><REV_AT_EPOCH>13342</REV_AT_EPOCH><BSTAR>.18077E-3</BSTAR><MEAN_MOTION_DOT>.82E-6</MEAN_MOTION_DOT><MEAN_MOTION_DDOT>0</MEAN_MOTION_DDOT></tleParameters></data></segment></body></omm>
<omm id="CCSDS_OMM_VERS" version="2.0">
<header><CREATION_DATE/><ORIGINATOR/></header><body><segment><metadata><OBJECT_NAME>ONEWEB-0278</OBJECT_NAME><OBJECT_ID>2021-060AF</OBJECT_ID><CENTER_NAME>EARTH</CENTER_NAME><REF_FRAME>TEME</REF_FRAME><TIME_SYSTEM>UTC</TIME_SYSTEM><MEAN_ELEMENT_THEORY>SGP4</MEAN_ELEMENT_THEORY></metadata><data><meanElements><EPOCH>2024-04-01T13:23:40.637472</EPOCH><MEAN_MOTION>13.16596579</MEAN_MOTION><ECCENTRICITY>.0002034</ECCENTRICITY><INCLINATION>87.9138</INCLINATION><RA_OF_ASC_NODE>29.3049</RA_OF_ASC_NODE><ARG_OF_PERICENTER>89.3785</ARG_OF_PERICENTER><MEAN_ANOMALY>270.7579</MEAN_ANOMALY></meanElements><tleParameters><EPHEMERIS_TYPE>0</EPHEMERIS_TYPE><CLASSIFICATION_TYPE>U</CLASSIFICATION_TYPE><NORAD_CAT_ID>48996</NORAD_CAT_ID><ELEMENT_SET_NO>999</ELEMENT_SET_NO><REV_AT_EPOCH>13355</REV_AT_EPOCH><BSTAR>.15502E-3</BSTAR><MEAN_MOTION_DOT>.72E-6</MEAN_MOTION_DOT><MEAN_MOTION_DDOT>0</MEAN_MOTION_DDOT></tleParameters></data></segment></body></omm>
<omm id="CCSDS_OMM_VERS" version="2.0">
<header><CREATION_DATE/><ORIGINATOR/></header><body><segment><metadata><OBJECT_NAME>ONEWEB-0279</OBJECT_NAME><OBJECT_ID>2021-060AG</OBJECT_ID><CENTER_NAME>EARTH</CENTER_NAME><REF_FRAME>TEME</REF_FRAME><TIME_SYSTEM>UTC</TIME_SYSTEM><MEAN_ELEMENT_THEORY>SGP4</MEAN_ELEMENT_THEORY></metadata><data><meanElements><EPOCH>2024-04-01T13:35:04.640352</EPOCH><MEAN_MOTION>13.16594125</MEAN_MOTION><ECCENTRICITY>.0001448</ECCENTRICITY><INCLINATION>87.9137</INCLINATION><RA_OF_ASC_NODE>29.3013</RA_OF_ASC_NODE><ARG_OF_PERICENTER>70.2525</ARG_OF_PERICENTER><MEAN_ANOMALY>289.8762</MEAN_ANOMALY></meanElements><tleParameters><EPHEMERIS_TYPE>0</EPHEMERIS_TYPE><CLASSIFICATION_TYPE>U</CLASSIFICATION_TYPE><NORAD_CAT_ID>48997</NORAD_CAT_ID><ELEMENT_SET_NO>999</ELEMENT_SET_NO><REV_AT_EPOCH>13348</REV_AT_EPOCH><BSTAR>-.1419E-4</BSTAR><MEAN_MOTION_DOT>.7E-7</MEAN_MOTION_DOT><MEAN_MOTION_DDOT>0</MEAN_MOTION_DDOT></tleParameters></data></segment></body></omm>
<omm id="CCSDS_OMM_VERS" version="2.0">
<header><CREATION_DATE/><ORIGINATOR/></header><body><segment><metadata><OBJECT_NAME>ONEWEB-0280</OBJECT_NAME><OBJECT_ID>2021-060AH</OBJECT_ID><CENTER_NAME>EARTH</CENTER_NAME><REF_FRAME>TEME</REF_FRAME><TIME_SYSTEM>UTC</TIME_SYSTEM><MEAN_ELEMENT_THEORY>SGP4</MEAN_ELEMENT_THEORY></metadata><data><meanElements><EPOCH>2024-04-01T13:55:36.492672</EPOCH><MEAN_MOTION>13.16595494</MEAN_MOTION><ECCENTRICITY>.0001345</ECCENTRICITY><INCLINATION>87.9139</INCLINATION><RA_OF_ASC_NODE>29.2989</RA_OF_ASC_NODE><ARG_OF_PERICENTER>64.0006</ARG_OF_PERICENTER><MEAN_ANOMALY>296.1264</MEAN_ANOMALY></meanElements><tleParameters><EPHEMERIS_TYPE>0</EPHEMERIS_TYPE><CLASSIFICATION_TYPE>U</CLASSIFICATION_TYPE><NORAD_CAT_ID>48998</NORAD_CAT_ID><ELEMENT_SET_NO>999</ELEMENT_SET_NO><REV_AT_EPOCH>13342</REV_AT_EPOCH><BSTAR>.27853E-3</BSTAR><MEAN_MOTION_DOT>.119E-5</MEAN_MOTION_DOT><MEAN_MOTION_DDOT>0</MEAN_MOTION_DDOT></tleParameters></data></segment></body></omm>
<omm id="CCSDS_OMM_VERS" version="2.0">
<header><CREATION_DATE/><ORIGINATOR/></header><body><segment><metadata><OBJECT_NAME>ONEWEB-0281</OBJECT_NAME><OBJECT_ID>2021-060AJ</OBJECT_ID><CENTER_NAME>EARTH</CENTER_NAME><REF_FRAME>TEME</REF_FRAME><TIME_SYSTEM>UTC</TIME_SYSTEM><MEAN_ELEMENT_THEORY>SGP4</MEAN_ELEMENT_THEORY></metadata><data><meanElements><EPOCH>2024-04-01T14:04:43.423680</EPOCH><MEAN_MOTION>13.16597157</MEAN_MOTION><ECCENTRICITY>.0001994</ECCENTRICITY><INCLINATION>87.9140</INCLINATION><RA_OF_ASC_NODE>29.3000</RA_OF_ASC_NODE><ARG_OF_PERICENTER>73.5060</ARG_OF_PERICENTER><MEAN_ANOMALY>286.6290</MEAN_ANOMALY></meanElements><tleParameters><EPHEMERIS_TYPE>0</EPHEMERIS_TYPE><CLASSIFICATION_TYPE>U</CLASSIFICATION_TYPE><NORAD_CAT_ID>48999</NORAD_CAT_ID><ELEMENT_SET_NO>999</ELEMENT_SET_NO><REV_AT_EPOCH>13349</REV_AT_EPOCH><BSTAR>.44183E-4</BSTAR><MEAN_MOTION_DOT>.3E-6</MEAN_MOTION_DOT><MEAN_MOTION_DDOT>0</MEAN_MOTION_DDOT></tleParameters></data></segment></body></omm>
<omm id="CCSDS_OMM_VERS" version="2.0">
<header><CREATION_DATE/><ORIGINATOR/></header><body><segment><metadata><OBJECT_NAME>ONEWEB-0282</OBJECT_NAME><OBJECT_ID>2021-060AK</OBJECT_ID><CENTER_NAME>EARTH</CENTER_NAME><REF_FRAME>TEME</REF_FRAME><TIME_SYSTEM>UTC</TIME_SYSTEM><MEAN_ELEMENT_THEORY>SGP4</MEAN_ELEMENT_THEORY></metadata><data><meanElements><EPOCH>2024-04-01T12:58:35.961600</EPOCH><MEAN_MOTION>13.16596980</MEAN_MOTION><ECCENTRICITY>.0001494</ECCENTRICITY><INCLINATION>87.9140</INCLINATION><RA_OF_ASC_NODE>29.3261</RA_OF_ASC_NODE><ARG_OF_PERICENTER>83.1941</ARG_OF_PERICENTER><MEAN_ANOMALY>276.9360</MEAN_ANOMALY></meanElements><tleParameters><EPHEMERIS_TYPE>0</EPHEMERIS_TYPE><CLASSIFICATION_TYPE>U</CLASSIFICATION_TYPE><NORAD_CAT_ID>49000</NORAD_CAT_ID><ELEMENT_SET_NO>999</ELEMENT_SET_NO><REV_AT_EPOCH>13346</REV_AT_EPOCH><BSTAR>-.32354E-4</BSTAR><MEAN_MOTION_DOT>0</MEAN_MOTION_DOT><MEAN_MOTION_DDOT>0</MEAN_MOTION_DDOT></tleParameters></data></segment></body></omm>
<omm id="CCSDS_OMM_VERS" version="2.0">
<header><CREATION_DATE/><ORIGINATOR/></header><body><segment><metadata><OBJECT_NAME>ONEWEB-0283</OBJECT_NAME><OBJECT_ID>2021-060AL</OBJECT_ID><CENTER_NAME>EARTH</CENTER_NAME><REF_FRAME>TEME</REF_FRAME><TIME_SYSTEM>UTC</TIME_SYSTEM><MEAN_ELEMENT_THEORY>SGP4</MEAN_ELEMENT_THEORY></metadata><data><meanElements><EPOCH>2024-04-01T12:42:38.679840</EPOCH><MEAN_MOTION>13.16596961</MEAN_MOTION><ECCENTRICITY>.0001617</ECCENTRICITY><INCLINATION>87.9139</INCLINATION><RA_OF_ASC_NODE>29.3352</RA_OF_ASC_NODE><ARG_OF_PERICENTER>72.6493</ARG_OF_PERICENTER><MEAN_ANOMALY>287.4815</MEAN_ANOMALY></meanElements><tleParameters><EPHEMERIS_TYPE>0</EPHEMERIS_TYPE><CLASSIFICATION_TYPE>U</CLASSIFICATION_TYPE><NORAD_CAT_ID>49001</NORAD_CAT_ID><ELEMENT_SET_NO>999</ELEMENT_SET_NO><REV_AT_EPOCH>13347</REV_AT_EPOCH><BSTAR>.39338E-4</BSTAR><MEAN_MOTION_DOT>.28E-6</MEAN_MOTION_DOT><MEAN_MOTION_DDOT>0</MEAN_MOTION_DDOT></tleParameters></data></segment></body></omm>
<omm id="CCSDS_OMM_VERS" version="2.0">
<header><CREATION_DATE/><ORIGINATOR/></header><body><segment><metadata><OBJECT_NAME>ONEWEB-0284</OBJECT_NAME><OBJECT_ID>2021-060AM</OBJECT_ID><CENTER_NAME>EARTH</CENTER_NAME><REF_FRAME>TEME</REF_FRAME><TIME_SYSTEM>UTC</TIME_SYSTEM><MEAN_ELEMENT_THEORY>SGP4</MEAN_ELEMENT_THEORY></metadata><data><meanElements><EPOCH>2024-04-01T12:33:31.627872</EPOCH><MEAN_MOTION>13.16596404</MEAN_MOTION><ECCENTRICITY>.000163</ECCENTRICITY><INCLINATION>87.9134</INCLINATION><RA_OF_ASC_NODE>29.3247</RA_OF_ASC_NODE><ARG_OF_PERICENTER>83.7742</ARG_OF_PERICENTER><MEAN_ANOMALY>276.3574</MEAN_ANOMALY></meanElements><tleParameters><EPHEMERIS_TYPE>0</EPHEMERIS_TYPE><CLASSIFICATION_TYPE>U</CLASSIFICATION_TYPE><NORAD_CAT_ID>49002</NORAD_CAT_ID><ELEMENT_SET_NO>999</ELEMENT_SET_NO><REV_AT_EPOCH>13345</REV_AT_EPOCH><BSTAR>.82812E-4</BSTAR><MEAN_MOTION_DOT>.44E-6</MEAN_MOTION_DOT><MEAN_MOTION_DDOT>0</MEAN_MOTION_DDOT></tleParameters></data></segment></body></omm>

</ndm>
